{
  "type": "FeatureCollection",
  "features": [
    {
      "type": "Feature",
      "properties": {
        "norad_id": 29816,
        "name": "FENGYUN 1C DEB",
        "group": "fengyun-1c-debris",
        "lat": -45.12576245056755,
        "lon": 19.425237227865903,
        "alt_km": 648.4015021501391,
        "timestamp": "2025-12-14T11:29:50.331940+00:00",
        "meta_object_name": "FENGYUN 1C DEB",
        "meta_object_id": "1999-025DJ",
        "meta_epoch": "2025-12-13T14:49:21.447840",
        "meta_mean_motion": 14.44313975,
        "meta_eccentricity": 0.02376858,
        "meta_inclination": 98.9933,
        "meta_ra_of_asc_node": 207.6664,
        "meta_arg_of_pericenter": 174.5008,
        "meta_mean_anomaly": 252.5152,
        "meta_ephemeris_type": 0,
        "meta_classification_type": "U",
        "meta_norad_cat_id": 29816,
        "meta_element_set_no": 999,
        "meta_rev_at_epoch": 98200,
        "meta_bstar": 0.0013575281,
        "meta_mean_motion_dot": 6.549e-05,
        "meta_mean_motion_ddot": 0,
        "tle_line1": "1 29816U 99025DJ  25347.61760935  .00006549  00000+0  13575-2 0  9995",
        "tle_line2": "2 29816  98.9933 207.6664 0237685 174.5008 252.5152 14.44313975982008"
      },
      "geometry": {
        "type": "Point",
        "coordinates": [
          19.425237227865903,
          -45.12576245056755
        ]
      }
    },
    {
      "type": "Feature",
      "properties": {
        "norad_id": 29817,
        "name": "FENGYUN 1C DEB",
        "group": "fengyun-1c-debris",
        "lat": -24.628562691995278,
        "lon": -18.436201456424442,
        "alt_km": 843.1512471898059,
        "timestamp": "2025-12-14T11:29:50.331950+00:00",
        "meta_object_name": "FENGYUN 1C DEB",
        "meta_object_id": "1999-025DK",
        "meta_epoch": "2025-12-13T12:24:16.017120",
        "meta_mean_motion": 14.14254062,
        "meta_eccentricity": 0.00122368,
        "meta_inclination": 98.5576,
        "meta_ra_of_asc_node": 336.6839,
        "meta_arg_of_pericenter": 13.5063,
        "meta_mean_anomaly": 105.639,
        "meta_ephemeris_type": 0,
        "meta_classification_type": "U",
        "meta_norad_cat_id": 29817,
        "meta_element_set_no": 999,
        "meta_rev_at_epoch": 97406,
        "meta_bstar": 0.00049353269,
        "meta_mean_motion_dot": 9.01e-06,
        "meta_mean_motion_ddot": 0,
        "tle_line1": "1 29817U 99025DK  25347.51685205  .00000901  00000+0  49353-3 0  9991",
        "tle_line2": "2 29817  98.5576 336.6839 0012236  13.5063 105.6390 14.14254062974068"
      },
      "geometry": {
        "type": "Point",
        "coordinates": [
          -18.436201456424442,
          -24.628562691995278
        ]
      }
    },
    {
      "type": "Feature",
      "properties": {
        "norad_id": 29818,
        "name": "FENGYUN 1C DEB",
        "group": "fengyun-1c-debris",
        "lat": 8.905311462792534,
        "lon": -135.6530040555439,
        "alt_km": 798.0273962701376,
        "timestamp": "2025-12-14T11:29:50.331960+00:00",
        "meta_object_name": "FENGYUN 1C DEB",
        "meta_object_id": "1999-025DL",
        "meta_epoch": "2025-12-13T15:11:24.941184",
        "meta_mean_motion": 14.04501473,
        "meta_eccentricity": 0.01152246,
        "meta_inclination": 98.721,
        "meta_ra_of_asc_node": 224.9123,
        "meta_arg_of_pericenter": 23.3596,
        "meta_mean_anomaly": 30.2159,
        "meta_ephemeris_type": 0,
        "meta_classification_type": "U",
        "meta_norad_cat_id": 29818,
        "meta_element_set_no": 999,
        "meta_rev_at_epoch": 96822,
        "meta_bstar": 0.00021549314,
        "meta_mean_motion_dot": 3.23e-06,
        "meta_mean_motion_ddot": 0,
        "tle_line1": "1 29818U 99025DL  25347.63292756  .00000323  00000+0  21549-3 0  9995",
        "tle_line2": "2 29818  98.7210 224.9123 0115224  23.3596  30.2159 14.04501473968229"
      },
      "geometry": {
        "type": "Point",
        "coordinates": [
          -135.6530040555439,
          8.905311462792534
        ]
      }
    },
    {
      "type": "Feature",
      "properties": {
        "norad_id": 29819,
        "name": "FENGYUN 1C DEB",
        "group": "fengyun-1c-debris",
        "lat": 69.28354150081316,
        "lon": 176.12675923661217,
        "alt_km": 782.4554110366016,
        "timestamp": "2025-12-14T11:29:50.331970+00:00",
        "meta_object_name": "FENGYUN 1C DEB",
        "meta_object_id": "1999-025DM",
        "meta_epoch": "2025-12-13T11:36:06.016608",
        "meta_mean_motion": 14.02197947,
        "meta_eccentricity": 0.01914995,
        "meta_inclination": 98.7322,
        "meta_ra_of_asc_node": 331.1944,
        "meta_arg_of_pericenter": 64.999,
        "meta_mean_anomaly": 59.063,
        "meta_ephemeris_type": 0,
        "meta_classification_type": "U",
        "meta_norad_cat_id": 29819,
        "meta_element_set_no": 999,
        "meta_rev_at_epoch": 96630,
        "meta_bstar": 0.00062116181,
        "meta_mean_motion_dot": 1.076e-05,
        "meta_mean_motion_ddot": 0,
        "tle_line1": "1 29819U 99025DM  25347.48340297  .00001076  00000+0  62116-3 0  9994",
        "tle_line2": "2 29819  98.7322 331.1944 0191499  64.9990  59.0630 14.02197947966308"
      },
      "geometry": {
        "type": "Point",
        "coordinates": [
          176.12675923661217,
          69.28354150081316
        ]
      }
    },
    {
      "type": "Feature",
      "properties": {
        "norad_id": 29820,
        "name": "FENGYUN 1C DEB",
        "group": "fengyun-1c-debris",
        "lat": 80.97972487740947,
        "lon": -82.8668551610207,
        "alt_km": 919.9490245013612,
        "timestamp": "2025-12-14T11:29:50.331999+00:00",
        "meta_object_name": "FENGYUN 1C DEB",
        "meta_object_id": "1999-025DN",
        "meta_epoch": "2025-12-13T15:06:29.333952",
        "meta_mean_motion": 14.02606416,
        "meta_eccentricity": 0.00721327,
        "meta_inclination": 98.8318,
        "meta_ra_of_asc_node": 354.6541,
        "meta_arg_of_pericenter": 235.2393,
        "meta_mean_anomaly": 246.0986,
        "meta_ephemeris_type": 0,
        "meta_classification_type": "U",
        "meta_norad_cat_id": 29820,
        "meta_element_set_no": 999,
        "meta_rev_at_epoch": 96572,
        "meta_bstar": 0.00080375975,
        "meta_mean_motion_dot": 1.225e-05,
        "meta_mean_motion_ddot": 0,
        "tle_line1": "1 29820U 99025DN  25347.62950618  .00001225  00000+0  80376-3 0  9990",
        "tle_line2": "2 29820  98.8318 354.6541 0072132 235.2393 246.0986 14.02606416965724"
      },
      "geometry": {
        "type": "Point",
        "coordinates": [
          -82.8668551610207,
          80.97972487740947
        ]
      }
    },
    {
      "type": "Feature",
      "properties": {
        "norad_id": 29821,
        "name": "FENGYUN 1C DEB",
        "group": "fengyun-1c-debris",
        "lat": -14.940158158602387,
        "lon": -138.93228976196633,
        "alt_km": 799.5960487756065,
        "timestamp": "2025-12-14T11:29:50.332011+00:00",
        "meta_object_name": "FENGYUN 1C DEB",
        "meta_object_id": "1999-025DP",
        "meta_epoch": "2025-12-13T14:53:35.258208",
        "meta_mean_motion": 14.11075972,
        "meta_eccentricity": 0.03762564,
        "meta_inclination": 98.8739,
        "meta_ra_of_asc_node": 42.6064,
        "meta_arg_of_pericenter": 118.2132,
        "meta_mean_anomaly": 33.894,
        "meta_ephemeris_type": 0,
        "meta_classification_type": "U",
        "meta_norad_cat_id": 29821,
        "meta_element_set_no": 999,
        "meta_rev_at_epoch": 96523,
        "meta_bstar": 0.00108957,
        "meta_mean_motion_dot": 3.778e-05,
        "meta_mean_motion_ddot": 0,
        "tle_line1": "1 29821U 99025DP  25347.62054697  .00003778  00000+0  10896-2 0  9997",
        "tle_line2": "2 29821  98.8739  42.6064 0376256 118.2132  33.8940 14.11075972965236"
      },
      "geometry": {
        "type": "Point",
        "coordinates": [
          -138.93228976196633,
          -14.940158158602387
        ]
      }
    },
    {
      "type": "Feature",
      "properties": {
        "norad_id": 29827,
        "name": "FENGYUN 1C DEB",
        "group": "fengyun-1c-debris",
        "lat": -58.89683424259981,
        "lon": 145.10299365961666,
        "alt_km": 822.7845400195365,
        "timestamp": "2025-12-14T11:29:50.332021+00:00",
        "meta_object_name": "FENGYUN 1C DEB",
        "meta_object_id": "1999-025DV",
        "meta_epoch": "2025-12-13T13:00:24.867072",
        "meta_mean_motion": 14.21689004,
        "meta_eccentricity": 0.00249855,
        "meta_inclination": 98.6022,
        "meta_ra_of_asc_node": 338.7204,
        "meta_arg_of_pericenter": 320.1187,
        "meta_mean_anomaly": 166.6501,
        "meta_ephemeris_type": 0,
        "meta_classification_type": "U",
        "meta_norad_cat_id": 29827,
        "meta_element_set_no": 999,
        "meta_rev_at_epoch": 97874,
        "meta_bstar": 0.00048740654,
        "meta_mean_motion_dot": 1.031e-05,
        "meta_mean_motion_ddot": 0,
        "tle_line1": "1 29827U 99025DV  25347.54195448  .00001031  00000+0  48741-3 0  9995",
        "tle_line2": "2 29827  98.6022 338.7204 0024985 320.1187 166.6501 14.21689004978749"
      },
      "geometry": {
        "type": "Point",
        "coordinates": [
          145.10299365961666,
          -58.89683424259981
        ]
      }
    }
  ]
}